*******************************************************************************
Ephemeris / WWW_USER Mon Jul 15 19:11:11 2024 Pasadena, USA      / Horizons    
*******************************************************************************
Target body name: (2018 RY7)                      {source: JPL#20}
Center body name: Earth (399)                     {source: DE441}
Center-site name: Gemini South Obs., Cerro Pachon
*******************************************************************************
Start time      : A.D. 2018-Nov-01 23:14:00.0000 UT      
Stop  time      : A.D. 2018-Nov-02 09:38:00.0000 UT      
Step-size       : 1 minutes
*******************************************************************************
Target pole/equ : undefined
Target radii    : undefined                                                    
Center geodetic : 289.2634, -30.2406227, 2.71233  {E-lon(deg),Lat(deg),Alt(km)}
Center cylindric: 289.2634,5517.21435,-3194.81213 {E-lon(deg),Dxy(km),Dz(km)}
Center pole/equ : ITRF93                          {East-longitude positive}
Center radii    : 6378.137, 6378.137, 6356.752 km {Equator_a, b, pole_c}       
Target primary  : Sun
Vis. interferer : MOON (R_eq= 1737.400) km        {source: DE441}
Rel. light bend : Sun                             {source: DE441}
Rel. lght bnd GM: 1.3271E+11 km^3/s^2                                          
Small-body perts: Yes                             {source: SB441-N16}
Atmos refraction: NO (AIRLESS)
RA format       : HMS
Time format     : CAL 
Calendar mode   : Mixed Julian/Gregorian
RTS-only print  : NO       
EOP file        : eop.240715.p241008                                           
EOP coverage    : DATA-BASED 1962-JAN-20 TO 2024-JUL-15. PREDICTS-> 2024-OCT-07
Units conversion: 1 au= 149597870.700 km, c= 299792.458 km/s, 1 day= 86400.0 s 
Table cut-offs 1: Elevation (-90.0deg=NO ),Airmass (>38.000=NO), Daylight (YES)
Table cut-offs 2: Solar elongation (  0.0,180.0=NO ),Local Hour Angle( 0.0=NO )
Table cut-offs 3: RA/DEC angular rate (     0.0=NO )                           
*******************************************************************************
Initial IAU76/J2000 heliocentric ecliptic osculating elements (au, days, deg.):
  EPOCH=  2458422.5 ! 2018-Oct-31.00 (TDB)         Residual RMS= .22459        
   EC= .1470549687381346   QR= .8667733479166969   TP= 2458516.8896767548      
   OM= 2.838668085760325   W=  136.9006026425241   IN= 13.35135890147074       
  Equivalent ICRF heliocentric cartesian coordinates (au, au/d):
   X= 8.791791513870114E-01  Y= 4.508422091141234E-01  Z= 3.244113040133835E-01
  VX=-1.085418916943652E-02 VY= 1.006005810562689E-02 VZ= 7.673980932675997E-03
Asteroid physical parameters (km, seconds, rotational period in hours):        
   GM= n.a.                RAD= n.a.               ROTPER= n.a.                
   H= 24.4                 G= .150                 B-V= n.a.                   
                           ALBEDO= n.a.            STYP= n.a.                  
*******************************************************************************
 Date__(UT)__HR:MN     R.A._________(ICRF)_________DEC
******************************************************
$$SOE
 2018-Nov-01 23:14 C   20 40 12.328644 +33 07 38.97779
 2018-Nov-01 23:15 C   20 40 12.199477 +33 07 39.77197
 2018-Nov-01 23:16 C   20 40 12.070326 +33 07 40.56565
 2018-Nov-01 23:17 C   20 40 11.941189 +33 07 41.35882
 2018-Nov-01 23:18 C   20 40 11.812068 +33 07 42.15149
 2018-Nov-01 23:19 C   20 40 11.682963 +33 07 42.94366
 2018-Nov-01 23:20 C   20 40 11.553875 +33 07 43.73533
 2018-Nov-01 23:21 C   20 40 11.424802 +33 07 44.52650
 2018-Nov-01 23:22 C   20 40 11.295746 +33 07 45.31717
 2018-Nov-01 23:23 C   20 40 11.166708 +33 07 46.10733
 2018-Nov-01 23:24 C   20 40 11.037686 +33 07 46.89700
 2018-Nov-01 23:25 C   20 40 10.908682 +33 07 47.68617
 2018-Nov-01 23:26 C   20 40 10.779697 +33 07 48.47484
 2018-Nov-01 23:27 C   20 40 10.650729 +33 07 49.26301
 2018-Nov-01 23:28 C   20 40 10.521780 +33 07 50.05068
 2018-Nov-01 23:29 C   20 40 10.392850 +33 07 50.83786
 2018-Nov-01 23:30 C   20 40 10.263939 +33 07 51.62453
 2018-Nov-01 23:31 N   20 40 10.135047 +33 07 52.41071
 2018-Nov-01 23:32 N   20 40 10.006176 +33 07 53.19640
 2018-Nov-01 23:33 N   20 40 09.877324 +33 07 53.98159
 2018-Nov-01 23:34 N   20 40 09.748493 +33 07 54.76628
 2018-Nov-01 23:35 N   20 40 09.619682 +33 07 55.55048
 2018-Nov-01 23:36 N   20 40 09.490892 +33 07 56.33419
 2018-Nov-01 23:37 N   20 40 09.362124 +33 07 57.11740
 2018-Nov-01 23:38 N   20 40 09.233377 +33 07 57.90011
 2018-Nov-01 23:39 N   20 40 09.104652 +33 07 58.68234
 2018-Nov-01 23:40 N   20 40 08.975949 +33 07 59.46407
 2018-Nov-01 23:41 N   20 40 08.847269 +33 08 00.24532
 2018-Nov-01 23:42 N   20 40 08.718611 +33 08 01.02607
 2018-Nov-01 23:43 N   20 40 08.589977 +33 08 01.80633
 2018-Nov-01 23:44 N   20 40 08.461366 +33 08 02.58610
 2018-Nov-01 23:45 N   20 40 08.332778 +33 08 03.36538
 2018-Nov-01 23:46 N   20 40 08.204215 +33 08 04.14417
 2018-Nov-01 23:47 N   20 40 08.075676 +33 08 04.92248
 2018-Nov-01 23:48 N   20 40 07.947161 +33 08 05.70030
 2018-Nov-01 23:49 N   20 40 07.818671 +33 08 06.47763
 2018-Nov-01 23:50 N   20 40 07.690206 +33 08 07.25447
 2018-Nov-01 23:51 N   20 40 07.561767 +33 08 08.03083
 2018-Nov-01 23:52 N   20 40 07.433354 +33 08 08.80671
 2018-Nov-01 23:53 N   20 40 07.304966 +33 08 09.58210
 2018-Nov-01 23:54 N   20 40 07.176605 +33 08 10.35700
 2018-Nov-01 23:55 N   20 40 07.048271 +33 08 11.13143
 2018-Nov-01 23:56 N   20 40 06.919963 +33 08 11.90537
 2018-Nov-01 23:57 N   20 40 06.791683 +33 08 12.67883
 2018-Nov-01 23:58 N   20 40 06.663430 +33 08 13.45181
 2018-Nov-01 23:59 N   20 40 06.535205 +33 08 14.22432
 2018-Nov-02 00:00 N   20 40 06.407008 +33 08 14.99634
 2018-Nov-02 00:01 N   20 40 06.278839 +33 08 15.76788
 2018-Nov-02 00:02 A   20 40 06.150699 +33 08 16.53895
 2018-Nov-02 00:03 A   20 40 06.022588 +33 08 17.30954
 2018-Nov-02 00:04 A   20 40 05.894506 +33 08 18.07965
 2018-Nov-02 00:05 A   20 40 05.766454 +33 08 18.84929
 2018-Nov-02 00:06 A   20 40 05.638432 +33 08 19.61845
 2018-Nov-02 00:07 A   20 40 05.510439 +33 08 20.38714
 2018-Nov-02 00:08 A   20 40 05.382477 +33 08 21.15535
 2018-Nov-02 00:09 A   20 40 05.254546 +33 08 21.92310
 2018-Nov-02 00:10 A   20 40 05.126646 +33 08 22.69037
 2018-Nov-02 00:11 A   20 40 04.998777 +33 08 23.45717
 2018-Nov-02 00:12 A   20 40 04.870939 +33 08 24.22350
 2018-Nov-02 00:13 A   20 40 04.743134 +33 08 24.98937
 2018-Nov-02 00:14 A   20 40 04.615360 +33 08 25.75476
 2018-Nov-02 00:15 A   20 40 04.487619 +33 08 26.51969
 2018-Nov-02 00:16 A   20 40 04.359910 +33 08 27.28415
 2018-Nov-02 00:17 A   20 40 04.232235 +33 08 28.04815
 2018-Nov-02 00:18 A   20 40 04.104593 +33 08 28.81168
 2018-Nov-02 00:19 A   20 40 03.976984 +33 08 29.57475
 2018-Nov-02 00:20 A   20 40 03.849409 +33 08 30.33736
 2018-Nov-02 00:21 A   20 40 03.721868 +33 08 31.09950
 2018-Nov-02 00:22 A   20 40 03.594361 +33 08 31.86118
 2018-Nov-02 00:23 A   20 40 03.466889 +33 08 32.62241
 2018-Nov-02 00:24 A   20 40 03.339452 +33 08 33.38317
 2018-Nov-02 00:25 A   20 40 03.212051 +33 08 34.14348
 2018-Nov-02 00:26 A   20 40 03.084684 +33 08 34.90333
 2018-Nov-02 00:27 A   20 40 02.957354 +33 08 35.66272
 2018-Nov-02 00:28 A   20 40 02.830059 +33 08 36.42166
 2018-Nov-02 00:29 A   20 40 02.702801 +33 08 37.18014
 2018-Nov-02 00:30 A   20 40 02.575579 +33 08 37.93817
 2018-Nov-02 00:31 A   20 40 02.448395 +33 08 38.69575
 2018-Nov-02 00:32 A   20 40 02.321247 +33 08 39.45288
 2018-Nov-02 00:33     20 40 02.194137 +33 08 40.20955
 2018-Nov-02 00:34     20 40 02.067064 +33 08 40.96578
 2018-Nov-02 00:35     20 40 01.940029 +33 08 41.72156
 2018-Nov-02 00:36     20 40 01.813033 +33 08 42.47689
 2018-Nov-02 00:37     20 40 01.686075 +33 08 43.23178
 2018-Nov-02 00:38     20 40 01.559156 +33 08 43.98622
 2018-Nov-02 00:39     20 40 01.432275 +33 08 44.74022
 2018-Nov-02 00:40     20 40 01.305435 +33 08 45.49377
 2018-Nov-02 00:41     20 40 01.178633 +33 08 46.24689
 2018-Nov-02 00:42     20 40 01.051872 +33 08 46.99956
 2018-Nov-02 00:43     20 40 00.925150 +33 08 47.75179
 2018-Nov-02 00:44     20 40 00.798469 +33 08 48.50358
 2018-Nov-02 00:45     20 40 00.671828 +33 08 49.25494
 2018-Nov-02 00:46     20 40 00.545229 +33 08 50.00586
 2018-Nov-02 00:47     20 40 00.418670 +33 08 50.75634
 2018-Nov-02 00:48     20 40 00.292153 +33 08 51.50640
 2018-Nov-02 00:49     20 40 00.165678 +33 08 52.25601
 2018-Nov-02 00:50     20 40 00.039244 +33 08 53.00520
 2018-Nov-02 00:51     20 39 59.912853 +33 08 53.75396
 2018-Nov-02 00:52     20 39 59.786504 +33 08 54.50228
 2018-Nov-02 00:53     20 39 59.660198 +33 08 55.25018
 2018-Nov-02 00:54     20 39 59.533935 +33 08 55.99765
 2018-Nov-02 00:55     20 39 59.407715 +33 08 56.74470
 2018-Nov-02 00:56     20 39 59.281538 +33 08 57.49132
 2018-Nov-02 00:57     20 39 59.155406 +33 08 58.23751
 2018-Nov-02 00:58     20 39 59.029317 +33 08 58.98329
 2018-Nov-02 00:59     20 39 58.903272 +33 08 59.72864
 2018-Nov-02 01:00     20 39 58.777272 +33 09 00.47357
 2018-Nov-02 01:01     20 39 58.651317 +33 09 01.21809
 2018-Nov-02 01:02     20 39 58.525407 +33 09 01.96219
 2018-Nov-02 01:03     20 39 58.399542 +33 09 02.70587
 2018-Nov-02 01:04     20 39 58.273722 +33 09 03.44914
 2018-Nov-02 01:05     20 39 58.147948 +33 09 04.19199
 2018-Nov-02 01:06     20 39 58.022221 +33 09 04.93443
 2018-Nov-02 01:07     20 39 57.896539 +33 09 05.67646
 2018-Nov-02 01:08     20 39 57.770904 +33 09 06.41808
 2018-Nov-02 01:09     20 39 57.645316 +33 09 07.15929
 2018-Nov-02 01:10     20 39 57.519774 +33 09 07.90010
 2018-Nov-02 01:11     20 39 57.394280 +33 09 08.64050
 2018-Nov-02 01:12     20 39 57.268834 +33 09 09.38049
 2018-Nov-02 01:13     20 39 57.143435 +33 09 10.12008
 2018-Nov-02 01:14     20 39 57.018084 +33 09 10.85927
 2018-Nov-02 01:15     20 39 56.892781 +33 09 11.59806
 2018-Nov-02 01:16     20 39 56.767527 +33 09 12.33645
